[{"OBJECT_NAME":"GEESAT-5 11","OBJECT_ID":"2025-201L","EPOCH":"2026-03-09T16:20:00.938688","MEAN_MOTION":14.8375843,"ECCENTRICITY":0.00089326,"INCLINATION":49.9859,"RA_OF_ASC_NODE":140.356,"ARG_OF_PERICENTER":317.2651,"MEAN_ANOMALY":42.7591,"EPHEMERIS_TYPE":0,"CLASSIFICATION_TYPE":"U","NORAD_CAT_ID":65560,"ELEMENT_SET_NO":999,"REV_AT_EPOCH":2704,"BSTAR":0.00034705085,"MEAN_MOTION_DOT":2.678e-5,"MEAN_MOTION_DDOT":0},{"OBJECT_NAME":"UNKNOWN","OBJECT_ID":"","EPOCH":"2026-03-09T23:24:41.597280","MEAN_MOTION":14.71188189,"ECCENTRICITY":0.01426246,"INCLINATION":88.7425,"RA_OF_ASC_NODE":262.0534,"ARG_OF_PERICENTER":168.9683,"MEAN_ANOMALY":191.4722,"EPHEMERIS_TYPE":0,"CLASSIFICATION_TYPE":"U","NORAD_CAT_ID":270413,"ELEMENT_SET_NO":999,"REV_AT_EPOCH":8470,"BSTAR":0.00084093495,"MEAN_MOTION_DOT":6.097e-5,"MEAN_MOTION_DDOT":0}]
